******** Week 938 almanac for PRN-01 ********
ID:                         01
Health:                     000
Eccentricity:               4.9878144637E-004
Time of Applicability(s):  172800.0000
Orbital Inclination(rad):   0.0635238938
Rate of Right Ascen(r/s):   5.0619965668E-009
SQRT(A)  (m 1/2):           6493.351093
Right Ascen at Week(rad):  -2.9426505001E+000
Argument of Perigee(rad):  -0.668320680
Mean Anom(rad):            -1.1566025488E-001
Af0(s):                     8.8107562624E-004
Af1(s/s):                   4.9471537977E-013
week:                        938

******** Week 938 almanac for PRN-02 ********
ID:                         02
Health:                     000
Eccentricity:               8.6370692588E-004
Time of Applicability(s):  172800.0000
Orbital Inclination(rad):   0.0519323439
Rate of Right Ascen(r/s):   6.6034893476E-009
SQRT(A)  (m 1/2):           6493.393347
Right Ascen at Week(rad):  -2.9414410384E+000
Argument of Perigee(rad):   1.466814990
Mean Anom(rad):             2.9757895166E+000
Af0(s):                     2.8419529554E-004
Af1(s/s):                   3.3072211636E-011
week:                        938

******** Week 938 almanac for PRN-03 ********
ID:                         03
Health:                     000
Eccentricity:               9.1700500343E-004
Time of Applicability(s):  172800.0000
Orbital Inclination(rad):   0.0653905334
Rate of Right Ascen(r/s):   5.0784258225E-009
SQRT(A)  (m 1/2):           6493.411171
Right Ascen at Week(rad):  -2.9143304980E+000
Argument of Perigee(rad):   1.660566035
Mean Anom(rad):            -3.0644675598E+000
Af0(s):                    -1.4158419799E-004
Af1(s/s):                   2.0803803125E-011
week:                        938

******** Week 938 almanac for PRN-04 ********
ID:                         04
Health:                     000
Eccentricity:               8.3276501391E-004
Time of Applicability(s):  172800.0000
Orbital Inclination(rad):   0.0665625956
Rate of Right Ascen(r/s):   4.6319786548E-009
SQRT(A)  (m 1/2):           6493.400850
Right Ascen at Week(rad):  -2.9171972352E+000
Argument of Perigee(rad):  -0.547702875
Mean Anom(rad):             9.0169589068E-003
Af0(s):                     4.6717585064E-004
Af1(s/s):                   1.5324808089E-010
week:                        938

******** Week 938 almanac for PRN-05 ********
ID:                         05
Health:                     000
Eccentricity:               9.3734951224E-004
Time of Applicability(s):  172800.0000
Orbital Inclination(rad):   0.0575840485
Rate of Right Ascen(r/s):   8.0931942569E-009
SQRT(A)  (m 1/2):           6493.476053
Right Ascen at Week(rad):  -2.8505129746E+000
Argument of Perigee(rad):  -0.139045207
Mean Anom(rad):            -2.2336999268E+000
Af0(s):                     2.2526644170E-004
Af1(s/s):                  -6.1596061585E-011
week:                        938

******** Week 938 almanac for PRN-06 ********
ID:                         06
Health:                     000
Eccentricity:               3.8111658068E-003
Time of Applicability(s):  172800.0000
Orbital Inclination(rad):   0.9455951627
Rate of Right Ascen(r/s):  -2.1083021050E-009
SQRT(A)  (m 1/2):           6493.242298
Right Ascen at Week(rad):   1.3767753492E+000
Argument of Perigee(rad):  -2.979787739
Mean Anom(rad):            -2.7495861261E+000
Af0(s):                     2.2741209250E-004
Af1(s/s):                   2.0135892953E-011
week:                        938

******** Week 938 almanac for PRN-07 ********
ID:                         07
Health:                     000
Eccentricity:               2.8096176684E-003
Time of Applicability(s):  172800.0000
Orbital Inclination(rad):   0.8595468055
Rate of Right Ascen(r/s):  -1.6775698775E-009
SQRT(A)  (m 1/2):           6493.984026
Right Ascen at Week(rad):  -2.9553734181E+000
Argument of Perigee(rad):  -2.620280731
Mean Anom(rad):             1.1462968527E+000
Af0(s):                    -5.3328007925E-004
Af1(s/s):                  -6.0691895953E-011
week:                        938

******** Week 938 almanac for PRN-08 ********
ID:                         08
Health:                     000
Eccentricity:               2.6308571687E-003
Time of Applicability(s):  172800.0000
Orbital Inclination(rad):   1.0666056821
Rate of Right Ascen(r/s):  -1.7586446832E-009
SQRT(A)  (m 1/2):           6493.846113
Right Ascen at Week(rad):  -7.5764992533E-001
Argument of Perigee(rad):  -3.105827809
Mean Anom(rad):            -5.6357063731E-001
Af0(s):                     1.5676883049E-004
Af1(s/s):                  -2.5162094630E-011
week:                        938

******** Week 938 almanac for PRN-09 ********
ID:                         09
Health:                     000
Eccentricity:               1.1510474607E-002
Time of Applicability(s):  172800.0000
Orbital Inclination(rad):   0.9509403348
Rate of Right Ascen(r/s):  -2.0229414065E-009
SQRT(A)  (m 1/2):           6492.869249
Right Ascen at Week(rad):   1.4218190416E+000
Argument of Perigee(rad):  -2.338214446
Mean Anom(rad):             2.5604078433E+000
Af0(s):                    -2.6606069878E-004
Af1(s/s):                  -5.0230042348E-011
week:                        938

******** Week 938 almanac for PRN-10 ********
ID:                         10
Health:                     000
Eccentricity:               9.3615826918E-003
Time of Applicability(s):  172800.0000
Orbital Inclination(rad):   0.8617770095
Rate of Right Ascen(r/s):  -1.6800699817E-009
SQRT(A)  (m 1/2):           6493.051743
Right Ascen at Week(rad):  -2.9610541134E+000
Argument of Perigee(rad):  -2.436871110
Mean Anom(rad):             7.7745660727E-001
Af0(s):                    -6.7562446930E-005
Af1(s/s):                  -1.4620304967E-011
week:                        938

******** Week 938 almanac for PRN-11 ********
ID:                         11
Health:                     000
Eccentricity:               2.2976412438E-003
Time of Applicability(s):  172800.0000
Orbital Inclination(rad):   0.9850247051
Rate of Right Ascen(r/s):  -6.9835051767E-009
SQRT(A)  (m 1/2):           5282.636106
Right Ascen at Week(rad):  -2.0443980976E+000
Argument of Perigee(rad):  -1.673684347
Mean Anom(rad):             2.1475755607E+000
Af0(s):                     3.2510142773E-004
Af1(s/s):                   1.9301893417E-011
week:                        938

******** Week 938 almanac for PRN-12 ********
ID:                         12
Health:                     000
Eccentricity:               1.3926813845E-003
Time of Applicability(s):  172800.0000
Orbital Inclination(rad):   0.9834498592
Rate of Right Ascen(r/s):  -7.0860094464E-009
SQRT(A)  (m 1/2):           5282.628740
Right Ascen at Week(rad):  -2.0568882274E+000
Argument of Perigee(rad):  -1.599953345
Mean Anom(rad):             2.8835051639E+000
Af0(s):                     8.1503670663E-004
Af1(s/s):                  -1.0712319920E-011
week:                        938

******** Week 938 almanac for PRN-13 ********
ID:                         13
Health:                     000
Eccentricity:               4.8907451564E-003
Time of Applicability(s):  172800.0000
Orbital Inclination(rad):   1.0284739119
Rate of Right Ascen(r/s):  -1.8568630601E-009
SQRT(A)  (m 1/2):           6493.675163
Right Ascen at Week(rad):  -7.8701940871E-001
Argument of Perigee(rad):  -2.389053790
Mean Anom(rad):            -1.4218988833E+000
Af0(s):                     4.0010828525E-004
Af1(s/s):                   4.5128345505E-012
week:                        938

******** Week 938 almanac for PRN-14 ********
ID:                         14
Health:                     000
Eccentricity:               1.0559295770E-003
Time of Applicability(s):  172800.0000
Orbital Inclination(rad):   0.9739466424
Rate of Right Ascen(r/s):  -6.2481174020E-009
SQRT(A)  (m 1/2):           5282.634459
Right Ascen at Week(rad):   1.3019559825E-002
Argument of Perigee(rad):  -0.323602958
Mean Anom(rad):            -1.2765310588E+000
Af0(s):                    -1.7143588048E-004
Af1(s/s):                   7.9883655246E-011
week:                        938

******** Week 938 almanac for PRN-16 ********
ID:                         16
Health:                     000
Eccentricity:               6.3409676077E-003
Time of Applicability(s):  172800.0000
Orbital Inclination(rad):   0.9610238619
Rate of Right Ascen(r/s):  -2.0179411982E-009
SQRT(A)  (m 1/2):           6493.861456
Right Ascen at Week(rad):   1.3719687285E+000
Argument of Perigee(rad):  -2.298726774
Mean Anom(rad):             2.8865908883E+000
Af0(s):                    -2.4585018400E-004
Af1(s/s):                  -2.0433432724E-011
week:                        938

******** Week 938 almanac for PRN-19 ********
ID:                         19
Health:                     000
Eccentricity:               7.2041293606E-004
Time of Applicability(s):  172800.0000
Orbital Inclination(rad):   0.9765830841
Rate of Right Ascen(r/s):  -6.1749000665E-009
SQRT(A)  (m 1/2):           5282.637180
Right Ascen at Week(rad):   1.4307141321E-002
Argument of Perigee(rad):  -1.100482935
Mean Anom(rad):             2.2353638513E+000
Af0(s):                    -9.4676518347E-004
Af1(s/s):                   5.5404569821E-012
week:                        938

